satname,norad_id,inclination_deg,eccentricity,mean_motion_rev_per_day,perigee_km,apogee_km,l1,l2
STARLINK-1304,45376,53.0551,0.0001422,15.0640475,546.2122174158703,548.1817824054451,1 45376U 20019S   25307.60344377  .00006129  00000+0  42994-3 0  9996,2 45376  53.0551  12.6397 0001422  90.8796 269.2356 15.06404750310720
STARLINK-1305,45377,53.0544,0.0001685,15.31536935,470.0720089468696,472.380244320545,1 45377U 20019T   25307.55966296  .00049691  00000+0  16104-2 0  9995,2 45377  53.0544   9.9983 0001685  60.8120 299.3048 15.31536935310767
STARLINK-1319,45379,53.0549,0.0001048,15.27454503,482.70581324598515,484.14399662125834,1 45379U 20019V   25307.91670139  .01079806  00000+0  36241-1 0  9990,2 45379  53.0549  10.4855 0001048  86.8992 100.7182 15.27454503  5699
STARLINK-1266,45383,53.0555,0.0001744,15.06366888,546.1052448206729,548.5208417957783,1 45383U 20019Z   25306.42946385  .00004711  00000+0  33527-3 0  9997,2 45383  53.0555 357.9140 0001744  82.9750 277.1437 15.06366888310820
STARLINK-1267,45384,53.0547,0.0001365,15.06405949,546.2480175807086,548.1386327594792,1 45384U 20019AA  25307.54270973  .00007051  00000+0  49167-3 0  9992,2 45384  53.0547 353.5726 0001365  86.0496 274.0649 15.06405949310985
STARLINK-1272,45386,53.0533,0.0002463,15.33985147,462.2513459113952,465.62175134144854,1 45386U 20019AC  25307.81806688  .00073325  00000+0  21885-2 0  9995,2 45386  53.0533 348.9042 0002463  32.0417 328.0733 15.33985147311073
STARLINK-1274,45387,53.0363,0.0003052,15.29308238,475.78654769587774,479.9714598645851,1 45387U 20019AD  25307.79182242  .00062940  00000+0  21779-2 0  9999,2 45387  53.0363 336.5216 0003052 283.9147  76.1512 15.29308238311243
STARLINK-1280,45388,53.055,0.0002584,15.39532311,445.7275811992322,449.25506591684825,1 45388U 20019AE  25307.55587794  .00070653  00000+0  17648-2 0  9995,2 45388  53.0550   9.5085 0002584  23.6833 336.4289 15.39532311310753
STARLINK-1283,45389,53.0541,0.0003728,15.30287975,472.397572781264,477.5072362412684,1 45389U 20019AF  25306.42438111  .00060897  00000+0  20455-2 0  9998,2 45389  53.0541 354.0679 0003728  17.5296 342.5831 15.30287975310886
STARLINK-1284,45390,53.0552,0.0001303,15.0639475,546.3252734651733,548.1300234925666,1 45390U 20019AG  25306.43316329  .00003596  00000+0  26019-3 0  9993,2 45390  53.0552 357.8984 0001303  85.9078 274.2060 15.06394750310826
STARLINK-1292,45394,53.042,0.0007782,15.97960306,274.89711524183167,285.2599619060684,1 45394U 20019AL  25307.91670139  .00498726  11601-3  10690-2 0  9996,2 45394  53.0420 299.1356 0007782  36.2546  43.2125 15.97960306  5891
STARLINK-1297,45395,53.0557,0.0001357,15.06394989,546.2871440907365,548.1666878575306,1 45395U 20019AM  25306.47001671  .00002486  00000+0  18573-3 0  9996,2 45395  53.0557 357.7297 0001357  89.7230 270.3914 15.06394989310013
STARLINK-1307,45397,53.0554,0.0001407,15.06470929,546.0198133413896,547.9685452552449,1 45397U 20019AP  25306.39627447  .00061694  00000+0  41168-2 0  9995,2 45397  53.0554 358.0608 0001407 111.0113 249.1026 15.06470929310643
STARLINK-1312,45398,53.0384,0.0004745,16.05371486,256.4214273161451,262.7206122269081,1 45398U 20019AQ  25307.89419553  .00892530  42515-3  12440-2 0  9992,2 45398  53.0384 298.2683 0004745  53.4556 306.6912 16.05371486311542
STARLINK-1255,45399,53.0506,0.0002743,15.30523698,472.36912647715144,476.12834529185784,1 45399U 20019AR  25307.80436880  .00083150  00000+0  27602-2 0  9991,2 45399  53.0506 338.7314 0002743  41.6367 318.4841 15.30523698311021
STARLINK-1260,45404,53.054,0.0001326,15.06397494,546.300936240772,548.1375407152163,1 45404U 20019AW  25307.52511635  .00002522  00000+0  18819-3 0  9994,2 45404  53.0540 342.9913 0001326  85.8052 274.3089 15.06397494310844
STARLINK-1263,45405,53.0555,0.0001255,15.06390664,546.3710367463927,548.1093064164588,1 45405U 20019AX  25306.38247785  .00005376  00000+0  37959-3 0  9996,2 45405  53.0555 348.1239 0001255  83.4750 276.6382 15.06390664310674
STARLINK-1265,45406,53.055,0.000127,15.06406635,546.3117060092509,548.0707393778148,1 45406U 20019AY  25306.38984698  .00003689  00000+0  26636-3 0  9993,2 45406  53.0550 348.0903 0001270  82.6801 277.4332 15.06406635310672
STARLINK-1278,45408,53.0555,0.0002146,15.33211805,464.76828399077203,467.70588934877105,1 45408U 20019BA  25306.50485017  .00049041  00000+0  15085-2 0  9997,2 45408  53.0555  15.0040 0002146  10.6165 349.4880 15.33211805310311
STARLINK-1296,45412,53.0554,0.0001585,15.06412078,546.0768789759322,548.2722027343834,1 45412U 20019BE  25307.52142179  .00005632  00000+0  39659-3 0  9996,2 45412  53.0554 343.0083 0001585  97.6767 262.4402 15.06412078310842
STARLINK-1298,45413,53.0472,0.0008482,15.53319943,401.28556124745955,412.79593678088804,1 45413U 20019BF  25307.91670139  .00166537  00000+0  25443-2 0  9999,2 45413  53.0472 316.2329 0008482 329.5577   7.4063 15.53319943  5903
STARLINK-1309,45414,53.0558,0.0001436,15.06391747,546.2423686249185,548.2313359953014,1 45414U 20019BG  25306.40828264  .00007708  00000+0  53590-3 0  9996,2 45414  53.0558 348.0092 0001436  82.5153 277.5999 15.06391747310667
STARLINK-1316,45415,53.0556,0.0001389,15.06396943,546.2589950027432,548.1828594349245,1 45415U 20019BH  25306.43407596  .00005056  00000+0  35809-3 0  9998,2 45415  53.0556 347.8922 0001389 104.7127 255.4016 15.06396943310703
STARLINK-1318,45416,53.051,0.0005306,15.60481529,382.675970915172,389.85435449023316,1 45416U 20019BJ  25306.22531273  .00047312  00000+0  56682-3 0  9999,2 45416  53.0510 315.8147 0005306  40.3193 319.8212 15.60481529311124
STARLINK-1286,45417,53.0556,0.000109,15.35583408,458.4428928741454,459.93342975931137,1 45417U 20019BK  25307.91670139  .00051921  00000+0  14803-2 0  9991,2 45417  53.0556   8.8770 0001090  66.1244 343.6570 15.35583408  5689
STARLINK-1308,45419,53.0539,0.0001432,15.06396881,546.2294059581636,548.2128285229401,1 45419U 20019BM  25307.59606523  .00002617  00000+0  19451-3 0  9996,2 45419  53.0539  12.6738 0001432  93.7635 266.3518 15.06396881310462
STARLINK-1329,45531,53.0541,0.0001287,15.0639579,546.3331669919453,548.1157550320104,1 45531U 20025A   25306.43683786  .00006850  00000+0  47834-3 0  9995,2 45531  53.0541 317.8807 0001287  79.0954 281.0180 15.06395790305917
STARLINK-1338,45532,53.0545,0.0001425,15.06403407,546.2142553121266,548.1879766751854,1 45532U 20025B   25307.70848821  .00001368  00000+0  11069-3 0  9990,2 45532  53.0545 312.1677 0001425  83.6095 276.5056 15.06403407306104
STARLINK-1350,45535,53.0735,0.0001727,15.32301333,467.76554750064406,470.1305306731456,1 45535U 20025E   25306.18094348  .00013476  00000+0  43701-3 0  9992,2 45535  53.0735 270.3018 0001727  65.6284 294.4896 15.32301333306584
STARLINK-1362,45538,53.0546,0.0001485,15.06406123,546.1643804146206,548.221203362812,1 45538U 20025H   25307.74069019  .00005757  00000+0  40502-3 0  9994,2 45538  53.0546 311.7437 0001485  84.2859 275.8299 15.06406123306111
STARLINK-1368,45540,53.0545,0.0001422,15.06402187,546.2200714945775,548.1896387181696,1 45540U 20025K   25307.74535418  .00005094  00000+0  36062-3 0  9998,2 45540  53.0545 312.0051 0001422  88.8194 271.2958 15.06402187306109
STARLINK-1371,45542,53.0542,0.0001238,15.06393602,546.3738063771316,548.0885275352693,1 45542U 20025M   25307.71586019  .00001470  00000+0  11755-3 0  9996,2 45542  53.0542 312.1363 0001238  94.1256 265.9875 15.06393602306108
STARLINK-1372,45543,53.0547,0.0001451,15.06405404,546.1901298335606,548.1998611786557,1 45543U 20025N   25307.75271981  .00003888  00000+0  27973-3 0  9994,2 45543  53.0547 311.9720 0001451  88.7162 271.3993 15.06405404305206
STARLINK-1373,45544,53.0544,0.0001509,15.06401096,546.1631642676593,548.2532334486741,1 45544U 20025P   25306.44421795  .00002551  00000+0  19010-3 0  9999,2 45544  53.0544 317.8439 0001509  95.9472 264.1689 15.06401096305917
STARLINK-1294,45551,53.0479,0.0008319,15.60019172,381.97323009976935,393.2300660624469,1 45551U 20025W   25306.58335647  .00019762  00000+0  24526-3 0  9992,2 45551  53.0479 249.5583 0008319  60.7120 152.2112 15.60019172  5936
STARLINK-1325,45554,53.0555,0.0001831,15.61970144,380.72888872246494,383.2044386841135,1 45554U 20025Z   25307.91670139  .00099762  00000+0  11154-2 0  9991,2 45554  53.0555 235.9686 0001831 125.3171 217.0745 15.61970144  5920
STARLINK-1327,45555,53.0546,0.0001591,15.0640376,546.0982129816612,548.3018552259127,1 45555U 20025AA  25307.67716392  .00003637  00000+0  26291-3 0  9992,2 45555  53.0546 292.3104 0001591  88.4255 271.6916 15.06403760306371
STARLINK-1356,45564,53.0556,0.0001389,15.06395129,546.264553903623,548.1884198802827,1 45564U 20025AK  25306.28756466  .00000879  00000+0  77893-4 0  9994,2 45564  53.0556 298.5468 0001389  87.4337 272.6811 15.06395129306169
STARLINK-1357,45565,53.0625,0.0007839,15.32832834,461.9989667992204,472.7313450793026,1 45565U 20025AL  25307.65322235  .00103268  00000+0  31765-2 0  9992,2 45565  53.0625 276.8911 0007839  13.9290 346.1925 15.32832834306595
STARLINK-1361,45567,53.0556,0.0001529,15.06393322,546.1731361981383,548.2909140460215,1 45567U 20025AN  25306.30600034  .00000198  00000+0  32203-4 0  9999,2 45567  53.0556 298.4651 0001529  88.1329 271.9835 15.06393322306172
STARLINK-1363,45568,53.0541,0.000189,15.4122732,441.19685424612635,443.77504972197585,1 45568U 20025AP  25306.29760077  .00103550  00000+0  24311-2 0  9997,2 45568  53.0541 295.6915 0001890  93.3454 266.7767 15.41227320306200
STARLINK-1366,45569,53.0535,0.0002532,15.40213799,443.75004267253826,447.20552119810964,1 45569U 20025AQ  25307.68758772  .00117130  00000+0  28372-2 0  9991,2 45569  53.0535 288.5861 0002532  78.6591 281.4698 15.40213799306422
STARLINK-1376,45570,53.056,0.0001383,15.06397117,546.2626170045605,548.1781708597218,1 45570U 20025AR  25306.30231367  .00000372  00000+0  43859-4 0  9995,2 45570  53.0560 298.4811 0001383  91.8144 268.3004 15.06397117306166
